{"type": "FeatureCollection", "features": [ {"type": "Feature", "properties": {"norad_id": 66550, "name": "CZ-7A R/B", "group": "last-30-days", "lat": 11.792127908481227, "lon": -31.931767421133365, "alt_km": 13173.488008077133, "timestamp": "2025-12-04T05:42:42.158786+00:00", "meta": {"OBJECT_NAME": "CZ-7A R/B", "OBJECT_ID": "2025-277B", "EPOCH": "2025-12-01T03:57:29.558880", "MEAN_MOTION": 2.40161271, "ECCENTRICITY": 0.72362879, "INCLINATION": 14.4278, "RA_OF_ASC_NODE": 275.378, "ARG_OF_PERICENTER": 178.5774, "MEAN_ANOMALY": 186.2906, "EPHEMERIS_TYPE": 0, "CLASSIFICATION_TYPE": "U", "NORAD_CAT_ID": 66550, "ELEMENT_SET_NO": 999, "REV_AT_EPOCH": 5, "BSTAR": 4.4603974e-05, "MEAN_MOTION_DOT": 0.00016399, "MEAN_MOTION_DDOT": -7.1945e-08}, "tle": {"line1": "1 66550U 25277B   25335.16492545  .00016399 -71945-7  44604-4 0  9993", "line2": "2 66550  14.4278 275.3780 7236287 178.5774 186.2906  2.40161271    57"}}, "geometry": {"type": "Point", "coordinates": [-31.931767421133365, 11.792127908481227]}}, {"type": "Feature", "properties": {"norad_id": 66551, "name": "UNKNOWN", "group": "last-30-days", "lat": 24.48446450513683, "lon": -111.16679736844155, "alt_km": 323.0017782231853, "timestamp": "2025-12-04T05:42:42.158801+00:00", "meta": {"OBJECT_NAME": "UNKNOWN", "OBJECT_ID": "2025-271AE", "EPOCH": "2025-12-02T16:00:03.000096", "MEAN_MOTION": 15.87051116, "ECCENTRICITY": 7.17e-05, "INCLINATION": 53.1571, "RA_OF_ASC_NODE": 236.7807, "ARG_OF_PERICENTER": 110.7411, "MEAN_ANOMALY": 313.9012, "EPHEMERIS_TYPE": 0, "CLASSIFICATION_TYPE": "U", "NORAD_CAT_ID": 66551, "ELEMENT_SET_NO": 999, "REV_AT_EPOCH": 262, "BSTAR": -0.0074303, "MEAN_MOTION_DOT": -0.01709685, "MEAN_MOTION_DDOT": 0}, "tle": {"line1": "1 66551U 25271AE  25336.66670139 -.01709685  00000+0 -74303-2 0  9993", "line2": "2 66551  53.1571 236.7807 0000717 110.7411 313.9012 15.87051116  2624"}}, "geometry": {"type": "Point", "coordinates": [-111.16679736844155, 24.48446450513683]}}, {"type": "Feature", "properties": {"norad_id": 66554, "name": "GLOBAL-33", "group": "last-30-days", "lat": -39.3065489874515, "lon": 40.65544514760068, "alt_km": 473.3028793053754, "timestamp": "2025-12-04T05:42:42.158812+00:00", "meta": {"OBJECT_NAME": "GLOBAL-33", "OBJECT_ID": "2025-267A", "EPOCH": "2025-12-03T15:55:59.187936", "MEAN_MOTION": 15.31290639, "ECCENTRICITY": 0.00054725, "INCLINATION": 42.0185, "RA_OF_ASC_NODE": 109.3766, "ARG_OF_PERICENTER": 347.7557, "MEAN_ANOMALY": 12.3147, "EPHEMERIS_TYPE": 0, "CLASSIFICATION_TYPE": "U", "NORAD_CAT_ID": 66554, "ELEMENT_SET_NO": 999, "REV_AT_EPOCH": 201, "BSTAR": 0.00057636031, "MEAN_MOTION_DOT": 0.00017592, "MEAN_MOTION_DDOT": 0}, "tle": {"line1": "1 66554U 25267A   25337.66387949  .00017592  00000+0  57636-3 0  9993", "line2": "2 66554  42.0185 109.3766 0005472 347.7557  12.3147 15.31290639  2016"}}, "geometry": {"type": "Point", "coordinates": [40.65544514760068, -39.3065489874515]}}, {"type": "Feature", "properties": {"norad_id": 66555, "name": "ELECTRON KICK STAGE R/B", "group": "last-30-days", "lat": -23.74815015651429, "lon": 76.72822967699226, "alt_km": 467.00763571652897, "timestamp": "2025-12-04T05:42:42.158822+00:00", "meta": {"OBJECT_NAME": "ELECTRON KICK STAGE R/B", "OBJECT_ID": "2025-267B", "EPOCH": "2025-12-03T18:55:15.803040", "MEAN_MOTION": 15.32151362, "ECCENTRICITY": 0.00073754, "INCLINATION": 42.0173, "RA_OF_ASC_NODE": 108.5814, "ARG_OF_PERICENTER": 348.2013, "MEAN_ANOMALY": 11.8651, "EPHEMERIS_TYPE": 0, "CLASSIFICATION_TYPE": "U", "NORAD_CAT_ID": 66555, "ELEMENT_SET_NO": 999, "REV_AT_EPOCH": 203, "BSTAR": 0.0011201212, "MEAN_MOTION_DOT": 0.00035471, "MEAN_MOTION_DDOT": 0}, "tle": {"line1": "1 66555U 25267B   25337.78837735  .00035471  00000+0  11201-2 0  9993", "line2": "2 66555  42.0173 108.5814 0007375 348.2013  11.8651 15.32151362  2032"}}, "geometry": {"type": "Point", "coordinates": [76.72822967699226, -23.74815015651429]}}, {"type": "Feature", "properties": {"norad_id": 66557, "name": "STARLINK-35699", "group": "last-30-days", "lat": -42.9782721165466, "lon": 81.3553729207186, "alt_km": 355.3543645041891, "timestamp": "2025-12-04T05:42:42.158833+00:00", "meta": {"OBJECT_NAME": "STARLINK-35699", "OBJECT_ID": "2025-268A", "EPOCH": "2025-12-03T22:00:03.000096", "MEAN_MOTION": 15.73326235, "ECCENTRICITY": 0.00014717, "INCLINATION": 42.9991, "RA_OF_ASC_NODE": 173.3386, "ARG_OF_PERICENTER": 276.3304, "MEAN_ANOMALY": 332.439, "EPHEMERIS_TYPE": 0, "CLASSIFICATION_TYPE": "U", "NORAD_CAT_ID": 66557, "ELEMENT_SET_NO": 999, "REV_AT_EPOCH": 325, "BSTAR": -0.014938445, "MEAN_MOTION_DOT": -0.01857609, "MEAN_MOTION_DDOT": 0}, "tle": {"line1": "1 66557U 25268A   25337.91670139 -.01857609  00000+0 -14938-1 0  9991", "line2": "2 66557  42.9991 173.3386 0001471 276.3304 332.4390 15.73326235  3255"}}, "geometry": {"type": "Point", "coordinates": [81.3553729207186, -42.9782721165466]}}, {"type": "Feature", "properties": {"norad_id": 66558, "name": "STARLINK-35695", "group": "last-30-days", "lat": -42.949333290478506, "lon": 83.96960612071727, "alt_km": 355.3490363204055, "timestamp": "2025-12-04T05:42:42.158843+00:00", "meta": {"OBJECT_NAME": "STARLINK-35695", "OBJECT_ID": "2025-268B", "EPOCH": "2025-12-03T22:00:03.000096", "MEAN_MOTION": 15.7330656, "ECCENTRICITY": 0.0001499, "INCLINATION": 42.9991, "RA_OF_ASC_NODE": 173.3339, "ARG_OF_PERICENTER": 276.9249, "MEAN_ANOMALY": 333.7784, "EPHEMERIS_TYPE": 0, "CLASSIFICATION_TYPE": "U", "NORAD_CAT_ID": 66558, "ELEMENT_SET_NO": 999, "REV_AT_EPOCH": 325, "BSTAR": -0.014789171, "MEAN_MOTION_DOT": -0.01840122, "MEAN_MOTION_DDOT": 0}, "tle": {"line1": "1 66558U 25268B   25337.91670139 -.01840122  00000+0 -14789-1 0  9998", "line2": "2 66558  42.9991 173.3339 0001499 276.9249 333.7784 15.73306560  3258"}}, "geometry": {"type": "Point", "coordinates": [83.96960612071727, -42.949333290478506]}}, {"type": "Feature", "properties": {"norad_id": 66559, "name": "STARLINK-35419", "group": "last-30-days", "lat": -42.860599636623064, "lon": 86.58090075036436, "alt_km": 355.3021591807483, "timestamp": "2025-12-04T05:42:42.158855+00:00", "meta": {"OBJECT_NAME": "STARLINK-35419", "OBJECT_ID": "2025-268C", "EPOCH": "2025-12-03T22:00:03.000096", "MEAN_MOTION": 15.73313125, "ECCENTRICITY": 0.00015495, "INCLINATION": 42.999, "RA_OF_ASC_NODE": 173.3293, "ARG_OF_PERICENTER": 273.3319, "MEAN_ANOMALY": 339.2876, "EPHEMERIS_TYPE": 0, "CLASSIFICATION_TYPE": "U", "NORAD_CAT_ID": 66559, "ELEMENT_SET_NO": 999, "REV_AT_EPOCH": 325, "BSTAR": -0.014877294, "MEAN_MOTION_DOT": -0.01850153, "MEAN_MOTION_DDOT": 0}, "tle": {"line1": "1 66559U 25268C   25337.91670139 -.01850153  00000+0 -14877-1 0  9992", "line2": "2 66559  42.9990 173.3293 0001549 273.3319 339.2876 15.73313125  3250"}}, "geometry": {"type": "Point", "coordinates": [86.58090075036436, -42.860599636623064]}}, {"type": "Feature", "properties": {"norad_id": 66560, "name": "STARLINK-35411", "group": "last-30-days", "lat": -42.713174603644596, "lon": 89.17538978393748, "alt_km": 355.35591405379546, "timestamp": "2025-12-04T05:42:42.158865+00:00", "meta": {"OBJECT_NAME": "STARLINK-35411", "OBJECT_ID": "2025-268D", "EPOCH": "2025-12-03T22:00:03.000096", "MEAN_MOTION": 15.7333406, "ECCENTRICITY": 0.00014332, "INCLINATION": 42.9991, "RA_OF_ASC_NODE": 173.3245, "ARG_OF_PERICENTER": 272.2737, "MEAN_ANOMALY": 342.2455, "EPHEMERIS_TYPE": 0, "CLASSIFICATION_TYPE": "U", "NORAD_CAT_ID": 66560, "ELEMENT_SET_NO": 999, "REV_AT_EPOCH": 325, "BSTAR": -0.015034889, "MEAN_MOTION_DOT": -0.01868529, "MEAN_MOTION_DDOT": 0}, "tle": {"line1": "1 66560U 25268D   25337.91670139 -.01868529  00000+0 -15035-1 0  9997", "line2": "2 66560  42.9991 173.3245 0001433 272.2737 342.2455 15.73334060  3252"}}, "geometry": {"type": "Point", "coordinates": [89.17538978393748, -42.713174603644596]}}, {"type": "Feature", "properties": {"norad_id": 66561, "name": "STARLINK-35305", "group": "last-30-days", "lat": -42.24226069060284, "lon": 94.3257433334234, "alt_km": 355.4071111371413, "timestamp": "2025-12-04T05:42:42.158877+00:00", "meta": {"OBJECT_NAME": "STARLINK-35305", "OBJECT_ID": "2025-268E", "EPOCH": "2025-12-03T22:00:03.000096", "MEAN_MOTION": 15.73315518, "ECCENTRICITY": 0.00013792, "INCLINATION": 42.999, "RA_OF_ASC_NODE": 173.3146, "ARG_OF_PERICENTER": 267.4279, "MEAN_ANOMALY": 350.9419, "EPHEMERIS_TYPE": 0, "CLASSIFICATION_TYPE": "U", "NORAD_CAT_ID": 66561, "ELEMENT_SET_NO": 999, "REV_AT_EPOCH": 320, "BSTAR": -0.014885306, "MEAN_MOTION_DOT": -0.01851041, "MEAN_MOTION_DDOT": 0}, "tle": {"line1": "1 66561U 25268E   25337.91670139 -.01851041  00000+0 -14885-1 0  9991", "line2": "2 66561  42.9990 173.3146 0001379 267.4279 350.9419 15.73315518  3206"}}, "geometry": {"type": "Point", "coordinates": [94.3257433334234, -42.24226069060284]}}, {"type": "Feature", "properties": {"norad_id": 66562, "name": "STARLINK-35579", "group": "last-30-days", "lat": -42.506170281715704, "lon": 91.76468129858125, "alt_km": 355.40625583727797, "timestamp": "2025-12-04T05:42:42.158887+00:00", "meta": {"OBJECT_NAME": "STARLINK-35579", "OBJECT_ID": "2025-268F", "EPOCH": "2025-12-03T22:00:03.000096", "MEAN_MOTION": 15.7331828, "ECCENTRICITY": 0.00014083, "INCLINATION": 42.999, "RA_OF_ASC_NODE": 173.3191, "ARG_OF_PERICENTER": 263.0048, "MEAN_ANOMALY": 353.4451, "EPHEMERIS_TYPE": 0, "CLASSIFICATION_TYPE": "U", "NORAD_CAT_ID": 66562, "ELEMENT_SET_NO": 999, "REV_AT_EPOCH": 325, "BSTAR": -0.014903321, "MEAN_MOTION_DOT": -0.01853205, "MEAN_MOTION_DDOT": 0}, "tle": {"line1": "1 66562U 25268F   25337.91670139 -.01853205  00000+0 -14903-1 0  9997", "line2": "2 66562  42.9990 173.3191 0001408 263.0048 353.4451 15.73318280  3254"}}, "geometry": {"type": "Point", "coordinates": [91.76468129858125, -42.506170281715704]}}]}